STARLINK-36943
1 68035U 26040W   26092.83335647 -.01891902  00000+0 -22642-1 0  9990
2 68035  97.2848  42.4849 0001552  84.5148  15.1795 15.64032359  5940
